{"vector_layers":[{"id":"administrative","description":"Contains data about administrative divisions of a world.","minzoom":0,"maxzoom":11,"fields":{"gid":"Number","level":"Number","iso_a2":"String","code":"String","name":"String","name:am":"String","name:ar":"String","name:az":"String","name:be":"String","name:bg":"String","name:br":"String","name:bs":"String","name:ca":"String","name:co":"String","name:cs":"String","name:cy":"String","name:da":"String","name:de":"String","name:el":"String","name:en":"String","name:eo":"String","name:es":"String","name:et":"String","name:eu":"String","name:fi":"String","name:fr":"String","name:fy":"String","name:ga":"String","name:gd":"String","name:he":"String","name:hi":"String","name:hr":"String","name:hu":"String","name:hy":"String","name:id":"String","name:is":"String","name:it":"String","name:ja":"String","name:ja_kana":"String","name:ja_rm":"String","name:ja-Latn":"String","name:ja-Hira":"String","name:ka":"String","name:kk":"String","name:kn":"String","name:ko":"String","name:ko-Latn":"String","name:ku":"String","name:la":"String","name:lb":"String","name:lt":"String","name:lv":"String","name:mk":"String","name:mt":"String","name:ml":"String","name:nl":"String","name:no":"String","name:oc":"String","name:pl":"String","name:pt":"String","name:rm":"String","name:ro":"String","name:ru":"String","name:sk":"String","name:sl":"String","name:sq":"String","name:sr":"String","name:sr-Latn":"String","name:sv":"String","name:ta":"String","name:te":"String","name:th":"String","name:tr":"String","name:uk":"String","name:zh":"String","name_int":"String","name:latin":"String","name:nonlatin":"String","wikidata":"String","area":"Number","continent":"String","level_0":"String","level_1":"String","level_2":"String","level_3":"String"}},{"id":"postal","description":"Contains data about administrative divisions at zip code level.","minzoom":6,"maxzoom":11,"fields":{"gid":"Number","level":"Number","iso_a2":"String","code":"String","name":"String","area":"Number","level_0":"String","level_1":"String","level_2":"String"}}],"tilestats":{"layerCount":2,"layers":[{"layer":"administrative","attributeCount":11,"attributes":[{"attribute":"level","type":"number","values":[0,1,2,3,4]},{"attribute":"iso_a2","type":"string"},{"attribute":"code","type":"string"},{"attribute":"name","type":"string"},{"attribute":"wikidata","type":"string"},{"attribute":"area","type":"number","min":0,"max":16876904},{"attribute":"continent","type":"string","values":["Australia","South America","Antarctica","Seven seas","North America","Europe","Asia","Africa"]},{"attribute":"level_0","type":"string"},{"attribute":"level_1","type":"string"},{"attribute":"level_2","type":"string"},{"attribute":"level_3","type":"string"}],"geometry":"Polygon"},{"layer":"postal","attributeCount":8,"attributes":[{"attribute":"level","type":"number","values":[1,0]},{"attribute":"iso_a2","type":"string","values":["US"]},{"attribute":"code","type":"string"},{"attribute":"name","type":"string"},{"attribute":"area","type":"number","min":0,"max":436308},{"attribute":"level_0","type":"string","values":["US"]},{"attribute":"level_1","type":"string"},{"attribute":"level_2","type":"string"}],"geometry":"Polygon"}],"languages":["am","ar","az","be","bg","br","bs","ca","co","cs","cy","da","de","el","en","eo","es","et","eu","fi","fr","fy","ga","gd","he","hi","hr","hu","hy","id","is","it","ja","ka","kk","kn","ko","ku","la","lb","lt","lv","mk","mt","ml","nl","no","oc","pl","pt","rm","ro","ru","sk","sl","sq","sr","sv","ta","te","th","tr","uk","zh","latin","nonlatin"]},"tilejson":"2.1.0","pixel_scale":"256","format":"pbf","minzoom":0,"maxzoom":11,"version":"1.3","id":"countries","generator":"MapTiler Data","description":"The source contains data about administrative divisions of a world based on countries and their territories. It is often used for choropleth maps, video recording, and printing. The data doesn't require OpenStreetMap attribution, only the MapTiler attribution with the link. You can contact sales for a full attribution exemption.","attribution":"<a href=\"https://www.maptiler.com/copyright/\" target=\"_blank\">&copy; MapTiler</a>","bounds":[-180,-85.05110000000002,180,85.05110000000002],"center":[0,0,1],"logo":"https://api.maptiler.com/resources/logo.svg","name":"Countries","crs":"EPSG:3857","crs_wkt":"PROJCS[\"WGS 84 / Pseudo-Mercator\",GEOGCS[\"WGS 84\",DATUM[\"WGS_1984\",SPHEROID[\"WGS 84\",6378137,298.257223563,AUTHORITY[\"EPSG\",\"7030\"]],AUTHORITY[\"EPSG\",\"6326\"]],PRIMEM[\"Greenwich\",0,AUTHORITY[\"EPSG\",\"8901\"]],UNIT[\"degree\",0.0174532925199433,AUTHORITY[\"EPSG\",\"9122\"]],AUTHORITY[\"EPSG\",\"4326\"]],PROJECTION[\"Mercator_1SP\"],PARAMETER[\"central_meridian\",0],PARAMETER[\"scale_factor\",1],PARAMETER[\"false_easting\",0],PARAMETER[\"false_northing\",0],UNIT[\"metre\",1,AUTHORITY[\"EPSG\",\"9001\"]],AXIS[\"Easting\",EAST],AXIS[\"Northing\",NORTH],EXTENSION[\"PROJ4\",\"+proj=merc +a=6378137 +b=6378137 +lat_ts=0 +lon_0=0 +x_0=0 +y_0=0 +k=1 +units=m +nadgrids=@null +wktext +no_defs\"],AUTHORITY[\"EPSG\",\"3857\"]]","extent":[-20037508.342789244,-20037471.205137074,20037508.342789244,20037471.205137093],"tiles":["https://api.maptiler.com/tiles/countries/{z}/{x}/{y}.pbf?key=tuD8Imv3CRrCnq99JOJo"]}